NORAD_CAT_ID,OBJECT_NAME,OBJECT_TYPE,EPOCH,MEAN_MOTION,ECCENTRICITY,INCLINATION,RA_OF_ASC_NODE,ARG_OF_PERICENTER,MEAN_ANOMALY,BSTAR,MEAN_MOTION_DOT,MEAN_MOTION_DDOT,TLE_LINE0,TLE_LINE1,TLE_LINE2,SEMIMAJOR_AXIS,PERIOD,APOGEE,PERIGEE,DECAYED
51113.0,STARLINK-3372,PAYLOAD,2023-03-20 09:51:21,15.08844078,0.0001272,53.2168,121.1314,101.8788,258.2347,0.00020115,2.915e-05,0.0,0 STARLINK-3372,1 51113U 22005K   23079.41067040  .00002915  00000-0  20115-3 0  9992,2 51113  53.2168 121.1314 0001272 101.8788 258.2347 15.08844078 65036,6917.868,95.437,540.613,538.853,0.0
51113.0,STARLINK-3372,PAYLOAD,2023-03-20 19:23:40,15.08843001,0.0001149,53.2165,119.3475,98.9477,261.1645,0.00012747,1.742e-05,0.0,0 STARLINK-3372,1 51113U 22005K   23079.80811084  .00001742  00000-0  12747-3 0  9999,2 51113  53.2165 119.3475 0001149  98.9477 261.1645 15.08843001 66203,6917.871,95.437,540.531,538.941,0.0
51113.0,STARLINK-3372,PAYLOAD,2023-03-21 09:42:09,15.0883985,0.0001201,53.2178,116.6718,103.6163,256.4963,4.1866e-05,3.79e-06,0.0,0 STARLINK-3372,1 51113U 22005K   23080.40427371  .00000379  00000-0  41866-4 0  9999,2 51113  53.2178 116.6718 0001201 103.6163 256.4963 15.08839850 65185,6917.881,95.438,540.577,538.915,0.0
51113.0,STARLINK-3372,PAYLOAD,2023-03-21 19:14:28,15.08840172,0.0001198,53.2176,114.8869,97.7677,262.3452,3.5909e-05,2.84e-06,0.0,0 STARLINK-3372,1 51113U 22005K   23080.80171405  .00000284  00000-0  35909-4 0  9993,2 51113  53.2176 114.8869 0001198  97.7677 262.3452 15.08840172 66356,6917.88,95.438,540.574,538.916,0.0
51113.0,STARLINK-3372,PAYLOAD,2023-03-22 19:05:15,15.08841636,0.0001217,53.2169,110.4214,74.4359,285.6768,8.7448e-05,1.104e-05,0.0,0 STARLINK-3372,1 51113U 22005K   23081.79531499  .00001104  00000-0  87448-4 0  9992,2 51113  53.2169 110.4214 0001217  74.4359 285.6768 15.08841636 65392,6917.875,95.437,540.582,538.898,0.0
51113.0,STARLINK-3372,PAYLOAD,2023-03-23 10:59:06,15.08845348,0.0001368,53.2177,107.447,79.7944,280.3202,0.00017366,2.477e-05,0.0,0 STARLINK-3372,1 51113U 22005K   23082.45771460  .00002477  00000-0  17366-3 0  9995,2 51113  53.2177 107.4470 0001368  79.7944 280.3202 15.08845348 66600,6917.864,95.437,540.675,538.783,0.0
51113.0,STARLINK-3372,PAYLOAD,2023-03-23 18:56:02,15.08844882,0.0001473,53.2174,105.9632,70.8472,289.2679,0.00011842,1.597e-05,0.0,0 STARLINK-3372,1 51113U 22005K   23082.78891533  .00001597  00000-0  11842-3 0  9990,2 51113  53.2174 105.9632 0001473  70.8472 289.2679 15.08844882 65545,6917.865,95.437,540.749,538.711,0.0
51113.0,STARLINK-3372,PAYLOAD,2023-03-24 07:39:06,15.08864425,0.0001608,53.2163,103.5862,71.3285,288.7881,0.00042554,6.495e-05,0.0,0 STARLINK-3372,1 51113U 22005K   23083.31882732  .00006495  00000-0  42554-3 0  9997,2 51113  53.2163 103.5862 0001608  71.3285 288.7881 15.08864425 66736,6917.806,95.436,540.783,538.558,0.0
51113.0,STARLINK-3372,PAYLOAD,2023-03-24 18:46:49,15.0884917,0.0001926,53.2155,101.5081,53.2208,306.896,0.00016805,2.388e-05,0.0,0 STARLINK-3372,1 51113U 22005K   23083.78251254  .00002388  00000-0  16805-3 0  9994,2 51113  53.2155 101.5081 0001926  53.2208 306.8960 15.08849170 66803,6917.852,95.437,541.05,538.385,0.0
51113.0,STARLINK-3372,PAYLOAD,2023-03-25 04:19:08,15.08829128,9.14e-05,53.2177,99.7207,61.1146,298.9938,-8.8386e-05,-1.694e-05,0.0,0 STARLINK-3372,1 51113U 22005K   23084.17996024 -.00001694  00000-0 -88386-4 0  9994,2 51113  53.2177  99.7207 0000914  61.1146 298.9938 15.08829128 66863,6917.914,95.438,540.411,539.146,0.0
51113.0,STARLINK-3372,PAYLOAD,2023-03-25 07:29:54,15.08832756,0.0001084,53.2166,99.1246,76.1744,283.9369,-0.00012629,-2.297e-05,0.0,0 STARLINK-3372,1 51113U 22005K   23084.31243949 -.00002297  00000-0 -12629-3 0  9997,2 51113  53.2166  99.1246 0001084  76.1744 283.9369 15.08832756 65779,6917.903,95.438,540.517,539.018,0.0
51113.0,STARLINK-3372,PAYLOAD,2023-03-26 04:09:55,15.08842102,0.0001099,53.2165,95.2581,83.1187,276.993,7.5894e-05,9.2e-06,0.0,0 STARLINK-3372,1 51113U 22005K   23085.17355711  .00000920  00000-0  75894-4 0  9996,2 51113  53.2165  95.2581 0001099  83.1187 276.9930 15.08842102 67013,6917.874,95.437,540.499,538.979,0.0
51113.0,STARLINK-3372,PAYLOAD,2023-03-26 07:20:41,15.08844836,0.0001028,53.2168,94.6608,105.0198,255.0908,0.00018941,2.728e-05,0.0,0 STARLINK-3372,1 51113U 22005K   23085.30603566  .00002728  00000-0  18941-3 0  9992,2 51113  53.2168  94.6608 0001028 105.0198 255.0908 15.08844836 65924,6917.866,95.437,540.442,539.019,0.0
51113.0,STARLINK-3372,PAYLOAD,2023-03-27 04:00:42,15.08838566,9.26e-05,53.2177,90.7955,103.8317,256.2779,0.00023628,3.474e-05,0.0,0 STARLINK-3372,1 51113U 22005K   23086.16716132  .00003474  00000-0  23628-3 0  9998,2 51113  53.2177  90.7955 0000926 103.8317 256.2779 15.08838566 67161,6917.885,95.438,540.39,539.109,0.0
51113.0,STARLINK-3372,PAYLOAD,2023-03-27 07:11:29,15.08839637,9.62e-05,53.2173,90.202,94.5954,265.5148,0.00018529,2.662e-05,0.0,0 STARLINK-3372,1 51113U 22005K   23086.29964127  .00002662  00000-0  18529-3 0  9993,2 51113  53.2173  90.2020 0000962  94.5954 265.5148 15.08839637 66070,6917.881,95.438,540.412,539.081,0.0
51113.0,STARLINK-3372,PAYLOAD,2023-03-27 16:43:47,15.08839126,0.0001024,53.2178,88.4191,94.9228,265.1881,0.0001075,1.423e-05,0.0,0 STARLINK-3372,1 51113U 22005K   23086.69708188  .00001423  00000-0  10750-3 0  9992,2 51113  53.2178  88.4191 0001024  94.9228 265.1881 15.08839126 66131,6917.883,95.438,540.456,539.04,0.0
51113.0,STARLINK-3372,PAYLOAD,2023-03-28 05:26:52,15.08844091,0.0001024,53.2175,86.0396,95.6236,264.4873,0.00012198,1.654e-05,0.0,0 STARLINK-3372,1 51113U 22005K   23087.22699929  .00001654  00000-0  12198-3 0  9998,2 51113  53.2175  86.0396 0001024  95.6236 264.4873 15.08844091 67328,6917.868,95.437,540.441,539.024,0.0
51113.0,STARLINK-3372,PAYLOAD,2023-03-28 10:13:01,15.0884836,0.0001071,53.2176,85.1466,99.6865,260.4248,0.00017022,2.423e-05,0.0,0 STARLINK-3372,1 51113U 22005K   23087.42571635  .00002423  00000-0  17022-3 0  9999,2 51113  53.2176  85.1466 0001071  99.6865 260.4248 15.08848360 66246,6917.855,95.437,540.461,538.979,0.0
51113.0,STARLINK-3372,PAYLOAD,2023-03-28 16:34:34,15.08841952,9.5e-05,53.2168,83.9545,92.6135,267.4966,0.00010721,1.419e-05,0.0,0 STARLINK-3372,1 51113U 22005K   23087.69067932  .00001419  00000-0  10721-3 0  9991,2 51113  53.2168  83.9545 0000950  92.6135 267.4966 15.08841952 66287,6917.874,95.437,540.397,539.082,0.0
51113.0,STARLINK-3372,PAYLOAD,2023-03-29 08:28:25,15.08848661,0.000114,53.2182,80.9839,100.2429,259.8691,0.00021925,3.204e-05,0.0,0 STARLINK-3372,1 51113U 22005K   23088.35307792  .00003204  00000-0  21925-3 0  9998,2 51113  53.2182  80.9839 0001140 100.2429 259.8691 15.08848661 67498,6917.854,95.437,540.508,538.93,0.0
51113.0,STARLINK-3372,PAYLOAD,2023-03-29 16:25:21,15.08842652,0.0001211,53.2186,79.4997,89.4701,270.643,8.9281e-05,1.133e-05,0.0,0 STARLINK-3372,1 51113U 22005K   23088.68427945  .00001133  00000-0  89281-4 0  9996,2 51113  53.2186  79.4997 0001211  89.4701 270.6430 15.08842652 66439,6917.872,95.437,540.575,538.9,0.0
51113.0,STARLINK-3372,PAYLOAD,2023-03-30 08:19:13,15.08839072,0.0001366,53.2178,76.5226,83.8437,276.2711,-2.398e-06,-3.26e-06,0.0,0 STARLINK-3372,1 51113U 22005K   23089.34668378 -.00000326  00000-0 -23980-5 0  9997,2 51113  53.2178  76.5226 0001366  83.8437 276.2711 15.08839072 67648,6917.883,95.438,540.693,538.803,0.0
51113.0,STARLINK-3372,PAYLOAD,2023-03-31 04:59:13,15.08850186,0.0001061,53.2174,72.6579,85.5987,274.5126,0.00025848,3.829e-05,0.0,0 STARLINK-3372,1 51113U 22005K   23090.20779731  .00003829  00000-0  25848-3 0  9992,2 51113  53.2174  72.6579 0001061  85.5987 274.5126 15.08850186 67777,6917.849,95.437,540.448,538.98,0.0
51113.0,STARLINK-3372,PAYLOAD,2023-03-31 16:06:56,15.08839178,0.0001653,53.2184,70.5775,81.6059,278.5121,9.5153e-05,1.227e-05,0.0,0 STARLINK-3372,1 51113U 22005K   23090.67148622  .00001227  00000-0  95153-4 0  9999,2 51113  53.2184  70.5775 0001653  81.6059 278.5121 15.08839178 67842,6917.883,95.438,540.891,538.604,0.0
51113.0,STARLINK-3372,PAYLOAD,2023-04-01 08:00:47,15.08839305,0.0001218,53.2169,67.6016,80.0789,280.034,8.1244e-05,1.005e-05,0.0,0 STARLINK-3372,1 51113U 22005K   23091.33388398  .00001005  00000-0  81244-4 0  9999,2 51113  53.2169  67.6016 0001218  80.0789 280.0340 15.08839305 66831,6917.883,95.438,540.59,538.905,0.0
51113.0,STARLINK-3372,PAYLOAD,2023-04-01 15:57:43,15.08838905,0.00012,53.2174,66.1153,74.7847,285.3277,8.272e-05,1.029e-05,0.0,0 STARLINK-3372,1 51113U 22005K   23091.66508476  .00001029  00000-0  82720-4 0  9992,2 51113  53.2174  66.1153 0001200  74.7847 285.3277 15.08838905 66886,6917.884,95.438,540.579,538.919,0.0
51113.0,STARLINK-3372,PAYLOAD,2023-04-02 04:40:48,15.08847188,0.0001168,53.2176,63.7367,81.1087,279.0037,0.00018372,2.638e-05,0.0,0 STARLINK-3372,1 51113U 22005K   23092.19500271  .00002638  00000-0  18372-3 0  9994,2 51113  53.2176  63.7367 0001168  81.1087 279.0037 15.08847188 68079,6917.858,95.437,540.531,538.915,0.0
51113.0,STARLINK-3372,PAYLOAD,2023-04-02 07:51:34,15.08849332,0.0001205,53.2176,63.1416,81.9767,278.1362,0.0002626,3.895e-05,0.0,0 STARLINK-3372,1 51113U 22005K   23092.32748222  .00003895  00000-0  26260-3 0  9990,2 51113  53.2176  63.1416 0001205  81.9767 278.1362 15.08849332 66985,6917.852,95.437,540.55,538.883,0.0
51113.0,STARLINK-3372,PAYLOAD,2023-04-02 22:10:03,15.08836427,0.0001152,53.2174,60.4656,81.3959,278.7164,0.0001737,2.477e-05,0.0,0 STARLINK-3372,1 51113U 22005K   23092.92364985  .00002477  00000-0  17370-3 0  9993,2 51113  53.2174  60.4656 0001152  81.3959 278.7164 15.08836427 67075,6917.891,95.438,540.553,538.959,0.0
51113.0,STARLINK-3372,PAYLOAD,2023-04-03 04:31:35,15.08842813,0.0001242,53.2177,59.2761,84.2643,275.8491,0.00023665,3.481e-05,0.0,0 STARLINK-3372,1 51113U 22005K   23093.18860812  .00003481  00000-0  23665-3 0  9992,2 51113  53.2177  59.2761 0001242  84.2643 275.8491 15.08842813 68228,6917.872,95.437,540.596,538.878,0.0
